[Satellite]
VERSION=1.1
NAME=ICECUBE
NICKNAME=ICECUBE
TLE1=1 42705U 98067LN  18021.13144425  .00035485  00000-0  33278-3 0  9995
TLE2=2 42705  51.6419  21.2194 0002702  19.7604 340.3496 15.66837023 38958
